1 29155U 06018A   11258.35230553 -.00000257  00000-0  10000-3 0  7458
2 29155 000.0970 077.6196 0003687 033.4437 294.9492 01.00266609 19485